COMMENT,ORIGINATOR,NORAD_CAT_ID,OBJECT_NAME,OBJECT_TYPE,CLASSIFICATION_TYPE,INTLDES,EPOCH,EPOCH_MICROSECONDS,MEAN_MOTION,ECCENTRICITY,INCLINATION,RA_OF_ASC_NODE,ARG_OF_PERICENTER,MEAN_ANOMALY,EPHEMERIS_TYPE,ELEMENT_SET_NO,REV_AT_EPOCH,BSTAR,MEAN_MOTION_DOT,MEAN_MOTION_DDOT,FILE,TLE_LINE0,TLE_LINE1,TLE_LINE2,OBJECT_ID,OBJECT_NUMBER,SEMIMAJOR_AXIS,PERIOD,APOGEE,PERIGEE,DECAYED,date
GENERATED VIA SPACETRACK.ORG API,18 SPCS,48897,SPACEBEE-109,PAYLOAD,U,21059U,2023/4/26 14:43,36160,15.29306743,0.000732,97.5901,252.7976,100.2513,259.9552,0,999,10152,0.0010409,0.0002962,0,3894261,0 SPACEBEE-109,1 48897U 21059U   23116.61366940  .00029620  00000-0  10409-2 0  9996,2 48897  97.5901 252.7976 0007320 100.2513 259.9552 15.29306743101527,2021-059U,48897,6856.02,94.16,482.904,472.867,0,
GENERATED VIA SPACETRACK.ORG API,18 SPCS,48897,SPACEBEE-109,PAYLOAD,U,21059U,2023/4/27 8:00,742720,15.29354167,0.0007232,97.5901,253.532,97.8149,262.3912,0,999,10163,0.0011505,0.00032808,0,3894751,0 SPACEBEE-109,1 48897U 21059U   23117.33339980  .00032808  00000-0  11505-2 0  9990,2 48897  97.5901 253.5320 0007232  97.8149 262.3912 15.29354167101630,2021-059U,48897,6855.879,94.157,482.702,472.786,0,
GENERATED VIA SPACETRACK.ORG API,18 SPCS,48897,SPACEBEE-109,PAYLOAD,U,21059U,2023/4/27 14:16,872928,15.29372508,0.0007236,97.5901,253.7991,97.0224,263.1839,0,999,10167,0.0012096,0.00034524,0,3894667,0 SPACEBEE-109,1 48897U 21059U   23117.59511427  .00034524  00000-0  12096-2 0  9999,2 48897  97.5901 253.7991 0007236  97.0224 263.1839 15.29372508101676,2021-059U,48897,6855.824,94.156,482.65,472.728,0,
GENERATED VIA SPACETRACK.ORG API,18 SPCS,48897,SPACEBEE-109,PAYLOAD,U,21059U,2023/4/28 9:07,545920,15.29428757,0.0007232,97.5899,254.6006,94.1857,266.021,0,999,10179,0.0011443,0.00032705,0,3895770,0 SPACEBEE-109,1 48897U 21059U   23118.38023780  .00032705  00000-0  11443-2 0  9991,2 48897  97.5899 254.6006 0007232  94.1857 266.0210 15.29428757101791,2021-059U,48897,6855.656,94.153,482.479,472.563,0,
GENERATED VIA SPACETRACK.ORG API,18 SPCS,48897,SPACEBEE-109,PAYLOAD,U,21059U,2023/4/28 20:07,663680,15.29460252,0.0007246,97.5898,255.0681,93.1419,267.065,0,999,10186,0.00112,0.00032037,0,3895863,0 SPACEBEE-109,1 48897U 21059U   23118.83821370  .00032037  00000-0  11200-2 0  9991,2 48897  97.5898 255.0681 0007246  93.1419 267.0650 15.29460252101865,2021-059U,48897,6855.562,94.151,482.394,472.459,0,
GENERATED VIA SPACETRACK.ORG API,18 SPCS,48897,SPACEBEE-109,PAYLOAD,U,21059U,2023/4/29 8:40,532896,15.29495356,0.0007208,97.5898,255.6022,91.3392,268.8674,0,999,10194,0.0011417,0.00032697,0,3896517,0 SPACEBEE-109,1 48897U 21059U   23119.36160339  .00032697  00000-0  11417-2 0  9993,2 48897  97.5898 255.6022 0007208  91.3392 268.8674 15.29495356101945,2021-059U,48897,6855.457,94.149,482.263,472.38,0,
GENERATED VIA SPACETRACK.ORG API,18 SPCS,48897,SPACEBEE-109,PAYLOAD,U,21059U,2023/4/30 3:31,764416,15.29550159,0.0007122,97.5897,256.4035,88.7455,271.46,0,999,10206,0.0011414,0.00032743,0,3896971,0 SPACEBEE-109,1 48897U 21059U   23120.14666394  .00032743  00000-0  11414-2 0  9992,2 48897  97.5897 256.4035 0007122  88.7455 271.4600 15.29550159102068,2021-059U,48897,6855.293,94.145,482.04,472.276,0,
GENERATED VIA SPACETRACK.ORG API,18 SPCS,48897,SPACEBEE-109,PAYLOAD,U,21059U,2023/4/30 14:30,738080,15.29580838,0.0007067,97.5899,256.8709,87.2108,272.9941,0,999,10213,0.0011232,0.00032247,0,3897442,0 SPACEBEE-109,1 48897U 21059U   23120.60460345  .00032247  00000-0  11232-2 0  9998,2 48897  97.5899 256.8709 0007067  87.2108 272.9941 15.29580838102138,2021-059U,48897,6855.201,94.143,481.911,472.222,0,
